NORAD_CAT_ID,OBJECT_NAME,OBJECT_TYPE,EPOCH,MEAN_MOTION,ECCENTRICITY,INCLINATION,RA_OF_ASC_NODE,ARG_OF_PERICENTER,MEAN_ANOMALY,BSTAR,MEAN_MOTION_DOT,MEAN_MOTION_DDOT,TLE_LINE0,TLE_LINE1,TLE_LINE2,SEMIMAJOR_AXIS,PERIOD,APOGEE,PERIGEE,DECAYED
56469.0,STARLINK-5518,PAYLOAD,2023-10-28 21:05:47,14.98332659,0.0002767,69.9978,140.1094,264.4807,95.6037,-1.9094e-05,-3.21e-06,0.0,0 STARLINK-5518,1 56469U 23064X   23301.87902586 -.00000321  00000-0 -19094-4 0  9994,2 56469  69.9978 140.1094 0002767 264.4807  95.6037 14.98332659 26853,6950.185,96.107,573.973,570.127,0.0
56469.0,STARLINK-5518,PAYLOAD,2023-10-29 13:07:08,14.98324897,0.000287,69.9975,138.4256,269.7055,90.3775,6.0466e-05,6.28e-06,0.0,0 STARLINK-5518,1 56469U 23064X   23302.54662843  .00000628  00000-0  60466-4 0  9995,2 56469  69.9975 138.4256 0002870 269.7055  90.3775 14.98324897 26595,6950.209,96.107,574.068,570.079,0.0
56469.0,STARLINK-5518,PAYLOAD,2023-10-29 22:43:56,14.98327721,0.0002897,69.9974,137.4154,269.4288,90.6539,5.937e-05,6.15e-06,0.0,0 STARLINK-5518,1 56469U 23064X   23302.94718730  .00000615  00000-0  59370-4 0  9994,2 56469  69.9974 137.4154 0002897 269.4288  90.6539 14.98327721 26651,6950.2,96.107,574.078,570.051,0.0
56469.0,STARLINK-5518,PAYLOAD,2023-10-30 21:09:49,14.98331623,0.0002895,69.9975,135.0588,269.7613,90.3214,3.632e-06,-5e-07,0.0,0 STARLINK-5518,1 56469U 23064X   23303.88182638 -.00000050  00000-0  36320-5 0  9995,2 56469  69.9975 135.0588 0002895 269.7613  90.3214 14.98331623 26798,6950.188,96.107,574.065,570.041,0.0
56469.0,STARLINK-5518,PAYLOAD,2023-10-31 13:11:10,14.98330776,0.0002906,69.9976,133.3755,269.9294,90.1532,-5.889e-06,-1.63e-06,0.0,0 STARLINK-5518,1 56469U 23064X   23304.54942645 -.00000163  00000-0 -58890-5 0  9993,2 56469  69.9976 133.3755 0002906 269.9294  90.1532 14.98330776 27257,6950.19,96.107,574.075,570.036,0.0
56469.0,STARLINK-5518,PAYLOAD,2023-10-31 14:47:18,14.9833151,0.0002902,69.9977,133.2071,269.8928,90.1898,1.8642e-06,-7.1e-07,0.0,0 STARLINK-5518,1 56469U 23064X   23304.61618568 -.00000071  00000-0  18642-5 0  9993,2 56469  69.9977 133.2071 0002902 269.8928  90.1898 14.98331510 26900,6950.188,96.107,574.07,570.036,0.0
56469.0,STARLINK-5518,PAYLOAD,2023-10-31 21:11:50,14.98332965,0.0002902,69.9984,132.5338,270.2096,89.873,-1.1824e-05,-2.34e-06,0.0,0 STARLINK-5518,1 56469U 23064X   23304.88322474 -.00000234  00000-0 -11824-4 0  9996,2 56469  69.9984 132.5338 0002902 270.2096  89.8730 14.98332965 26947,6950.184,96.107,574.066,570.032,0.0
56469.0,STARLINK-5518,PAYLOAD,2023-11-01 13:13:11,14.98329593,0.0002854,69.9988,130.8506,270.7698,89.3134,-1.6242e-05,-2.87e-06,0.0,0 STARLINK-5518,1 56469U 23064X   23305.55082657 -.00000287  00000-0 -16242-4 0  9994,2 56469  69.9988 130.8506 0002854 270.7698  89.3134 14.98329593 27406,6950.194,96.107,574.043,570.076,0.0
56469.0,STARLINK-5518,PAYLOAD,2023-11-01 14:49:19,14.98329492,0.0002858,69.9988,130.6823,270.7471,89.336,-1.6806e-05,-2.94e-06,0.0,0 STARLINK-5518,1 56469U 23064X   23305.61758661 -.00000294  00000-0 -16806-4 0  9990,2 56469  69.9988 130.6823 0002858 270.7471  89.3360 14.98329492 27059,6950.194,96.107,574.046,570.073,0.0
56469.0,STARLINK-5518,PAYLOAD,2023-11-01 22:49:59,14.98328806,0.0002862,69.999,129.8407,271.0561,89.027,-2.5797e-05,-4.01e-06,0.0,0 STARLINK-5518,1 56469U 23064X   23305.95138735 -.00000401  00000-0 -25797-4 0  9990,2 56469  69.9990 129.8407 0002862 271.0561  89.0270 14.98328806 27100,6950.197,96.107,574.051,570.072,0.0
56469.0,STARLINK-5518,PAYLOAD,2023-11-02 13:15:12,14.98336923,0.0002766,69.9989,128.3259,271.8732,88.211,-3.758e-05,-5.41e-06,0.0,0 STARLINK-5518,1 56469U 23064X   23306.55222230 -.00000541  00000-0 -37580-4 0  9999,2 56469  69.9989 128.3259 0002766 271.8732  88.2110 14.98336923 27550,6950.171,96.107,573.959,570.114,0.0
56469.0,STARLINK-5518,PAYLOAD,2023-11-02 14:51:20,14.98333588,0.0002878,69.9989,128.1575,270.7388,89.3441,2.5417e-05,2.1e-06,0.0,0 STARLINK-5518,1 56469U 23064X   23306.61898220  .00000210  00000-0  25417-4 0  9991,2 56469  69.9989 128.1575 0002878 270.7388  89.3441 14.98333588 27203,6950.182,96.107,574.047,570.047,0.0
56469.0,STARLINK-5518,PAYLOAD,2023-11-02 21:15:52,14.98333553,0.0002867,69.999,127.4844,270.2961,89.7869,2.5068e-05,2.06e-06,0.0,0 STARLINK-5518,1 56469U 23064X   23306.88602159  .00000206  00000-0  25068-4 0  9991,2 56469  69.9990 127.4844 0002867 270.2961  89.7869 14.98333553 27240,6950.182,96.107,574.04,570.054,0.0
56469.0,STARLINK-5518,PAYLOAD,2023-11-03 11:41:04,14.9832961,0.0002894,69.9991,125.9696,271.2954,88.7874,1.9055e-05,1.34e-06,0.0,0 STARLINK-5518,1 56469U 23064X   23307.48686341  .00000134  00000-0  19055-4 0  9992,2 56469  69.9991 125.9696 0002894 271.2954  88.7874 14.98329610 27695,6950.194,96.107,574.07,570.048,0.0
56469.0,STARLINK-5518,PAYLOAD,2023-11-03 13:17:13,14.98329763,0.0002883,69.9989,125.8008,268.0313,92.0516,-6.2067e-06,-1.67e-06,0.0,0 STARLINK-5518,1 56469U 23064X   23307.55362374 -.00000167  00000-0 -62067-5 0  9997,2 56469  69.9989 125.8008 0002883 268.0313  92.0516 14.98329763 27341,6950.194,96.107,574.062,570.055,0.0
56469.0,STARLINK-5518,PAYLOAD,2023-11-03 21:17:53,14.98330739,0.0002977,69.9988,124.9592,269.5453,90.5365,2.0161e-05,1.48e-06,0.0,0 STARLINK-5518,1 56469U 23064X   23307.88742224  .00000148  00000-0  20161-4 0  9994,2 56469  69.9988 124.9592 0002977 269.5453  90.5365 14.98330739 27398,6950.191,96.107,574.125,569.987,0.0
56469.0,STARLINK-5518,PAYLOAD,2023-11-04 13:19:14,14.98328453,0.0003002,69.9987,123.2755,269.2596,90.8219,-7.6023e-05,-1e-05,0.0,0 STARLINK-5518,1 56469U 23064X   23308.55502658 -.00001000  00000-0 -76023-4 0  9992,2 56469  69.9987 123.2755 0003002 269.2596  90.8219 14.98328453 27497,6950.198,96.107,574.149,569.976,0.0
56469.0,STARLINK-5518,PAYLOAD,2023-11-04 19:43:48,14.98302487,0.000317,69.9988,122.6025,269.6935,90.3861,-0.00034062,-4.152e-05,0.0,0 STARLINK-5518,1 56469U 23064X   23308.82209262 -.00004152  00000-0 -34062-3 0  9994,2 56469  69.9988 122.6025 0003170 269.6935  90.3861 14.98302487 27899,6950.278,96.109,574.346,569.94,0.0
56469.0,STARLINK-5518,PAYLOAD,2023-11-04 21:19:57,14.98301155,0.0003184,69.9988,122.4341,269.817,90.2624,-0.0003494,-4.256e-05,0.0,0 STARLINK-5518,1 56469U 23064X   23308.88885473 -.00004256  00000-0 -34940-3 0  9994,2 56469  69.9988 122.4341 0003184 269.8170  90.2624 14.98301155 27545,6950.282,96.109,574.36,569.934,0.0
56469.0,STARLINK-5518,PAYLOAD,2023-11-05 11:45:08,14.98315458,0.0003905,69.9988,120.9188,264.7315,95.3398,-0.00012025,-1.527e-05,0.0,0 STARLINK-5518,1 56469U 23064X   23309.48968340 -.00001527  00000-0 -12025-3 0  9994,2 56469  69.9988 120.9188 0003905 264.7315  95.3398 14.98315458 27997,6950.238,96.108,574.817,569.389,0.0
56469.0,STARLINK-5518,PAYLOAD,2023-11-05 14:57:23,14.98332326,0.0003123,69.9985,120.5817,266.4188,93.6614,6.5794e-05,6.92e-06,0.0,0 STARLINK-5518,1 56469U 23064X   23309.62319004  .00000692  00000-0  65794-4 0  9999,2 56469  69.9985 120.5817 0003123 266.4188  93.6614 14.98332326 27656,6950.186,96.107,574.221,569.88,0.0
56469.0,STARLINK-5518,PAYLOAD,2023-11-05 19:45:47,14.98333157,0.0003078,69.9985,120.077,267.0684,93.0123,7.8492e-05,8.44e-06,0.0,0 STARLINK-5518,1 56469U 23064X   23309.82346926  .00000844  00000-0  78492-4 0  9992,2 56469  69.9985 120.0770 0003078 267.0684  93.0123 14.98333157 28042,6950.183,96.107,574.187,569.909,0.0
56469.0,STARLINK-5518,PAYLOAD,2023-11-05 21:21:55,14.98334267,0.0003014,69.9984,119.9076,266.8868,93.1946,8.1023e-05,8.74e-06,0.0,0 STARLINK-5518,1 56469U 23064X   23309.89022840  .00000874  00000-0  81023-4 0  9992,2 56469  69.9984 119.9076 0003014 266.8868  93.1946 14.98334267 27695,6950.18,96.107,574.139,569.95,0.0
56469.0,STARLINK-5518,PAYLOAD,2023-11-06 11:47:07,14.9833883,0.0003309,69.998,118.394,266.4117,93.6664,0.00025623,2.966e-05,0.0,0 STARLINK-5518,1 56469U 23064X   23310.49105803  .00002966  00000-0  25623-3 0  9998,2 56469  69.9980 118.3940 0003309 266.4117  93.6664 14.98338830 28147,6950.166,96.106,574.33,569.731,0.0
56469.0,STARLINK-5518,PAYLOAD,2023-11-06 13:23:15,14.98339869,0.0003298,69.9981,118.2256,266.4424,93.6357,0.00026296,3.047e-05,0.0,0 STARLINK-5518,1 56469U 23064X   23310.55781695  .00003047  00000-0  26296-3 0  9992,2 56469  69.9981 118.2256 0003298 266.4424  93.6357 14.98339869 27797,6950.162,96.106,574.32,569.735,0.0
56469.0,STARLINK-5518,PAYLOAD,2023-11-06 21:23:55,14.98343754,0.0003363,69.9986,117.3844,266.9924,93.085,0.00028434,3.303e-05,0.0,0 STARLINK-5518,1 56469U 23064X   23310.89161171  .00003303  00000-0  28434-3 0  9991,2 56469  69.9986 117.3844 0003363 266.9924  93.0850 14.98343754 27844,6950.15,96.106,574.353,569.678,0.0
56469.0,STARLINK-5518,PAYLOAD,2023-11-07 11:49:09,14.98334304,0.0003395,69.9982,115.869,269.5004,90.5766,-6.4093e-05,-8.58e-06,0.0,0 STARLINK-5518,1 56469U 23064X   23311.49246802 -.00000858  00000-0 -64093-4 0  9999,2 56469  69.9982 115.8690 0003395 269.5004  90.5766 14.98334304 28294,6950.18,96.107,574.404,569.685,0.0
56469.0,STARLINK-5518,PAYLOAD,2023-11-07 13:25:17,14.98334084,0.0003331,69.9983,115.7008,270.7543,89.3235,-6.5345e-05,-8.73e-06,0.0,0 STARLINK-5518,1 56469U 23064X   23311.55922801 -.00000873  00000-0 -65345-4 0  9994,2 56469  69.9983 115.7008 0003331 270.7543  89.3235 14.98334084 27942,6950.18,96.107,574.36,569.73,0.0
56469.0,STARLINK-5518,PAYLOAD,2023-11-08 03:50:29,14.98349843,0.0003224,69.9988,114.186,268.4025,91.6765,-0.00033403,-4.078e-05,0.0,0 STARLINK-5518,1 56469U 23064X   23312.16006161 -.00004078  00000-0 -33403-3 0  9994,2 56469  69.9988 114.1860 0003224 268.4025  91.6765 14.98349843 28399,6950.132,96.106,574.237,569.756,0.0
56469.0,STARLINK-5518,PAYLOAD,2023-11-08 13:27:17,14.98356277,0.0003043,69.9988,113.1762,266.7128,93.3683,-0.00043364,-5.267e-05,0.0,0 STARLINK-5518,1 56469U 23064X   23312.56062077 -.00005267  00000-0 -43364-3 0  9994,2 56469  69.9988 113.1762 0003043 266.7128  93.3683 14.98356277 28097,6950.112,96.105,574.092,569.862,0.0
